KUIPER-00008            
1 63724U 25088A   25209.58335648 -.00837286  00000+0 -68826-1 0  9991
2 63724  51.8900  28.6285 0011908  70.2917 179.9516 15.01391356 14437
KUIPER-00009            
1 63725U 25088B   25209.58335648 -.00047970  00000+0 -25058-2 0  9996
2 63725  51.8807  22.5039 0012237  93.3823 313.2012 15.15368699 14525
KUIPER-00010            
1 63726U 25088C   25208.79137026  .00012615  00000+0  36387-3 0  9993
2 63726  51.8645  24.8663 0009777  78.6454 281.5630 15.36032127 14042
KUIPER-00011            
1 63727U 25088D   25208.75343431  .00012267  00000+0  35992-3 0  9993
2 63727  51.8591  25.2983 0011233  86.4234 273.8036 15.35508463 14174
KUIPER-00012            
1 63728U 25088E   25209.20711653  .00012272  00000+0  35812-3 0  9997
2 63728  51.8584  23.0767 0011456  88.4363 271.7935 15.35678148 14190
KUIPER-00013            
1 63729U 25088F   25209.25002315  .00000787  00000+0  58731-4 0  9995
2 63729  51.8797  24.6900 0006972  48.9774  30.5338 15.14520233 14272
KUIPER-00014            
1 63730U 25088G   25209.58335648 -.00888045  00000+0 -52805-1 0  9997
2 63730  51.8810  24.1069 0009821  85.8153 297.7807 15.13414362 14124
KUIPER-00015            
1 63731U 25088H   25209.50002315  .00001410  00000+0  17711-3 0  9992
2 63731  51.8930  32.9932 0012404  64.4477 282.8085 14.88173129 14449
