<?xml version="1.0" encoding="UTF-8"?>
<ndm xmlns:xsi="http://www.w3.org/2001/XMLSchema-instance" xsi:noNamespaceSchemaLocation="https://sanaregistry.org/r/ndmxml_unqualified/ndmxml-2.0.0-master-2.0.xsd">
<omm id="CCSDS_OMM_VERS" version="2.0">
<header><CREATION_DATE/><ORIGINATOR/></header><body><segment><metadata><OBJECT_NAME>KUIPER-00008</OBJECT_NAME><OBJECT_ID>2025-088A</OBJECT_ID><CENTER_NAME>EARTH</CENTER_NAME><REF_FRAME>TEME</REF_FRAME><TIME_SYSTEM>UTC</TIME_SYSTEM><MEAN_ELEMENT_THEORY>SGP4</MEAN_ELEMENT_THEORY></metadata><data><meanElements><EPOCH>2025-07-28T14:00:01.999872</EPOCH><MEAN_MOTION>15.01391356</MEAN_MOTION><ECCENTRICITY>.0011908</ECCENTRICITY><INCLINATION>51.8900</INCLINATION><RA_OF_ASC_NODE>28.6285</RA_OF_ASC_NODE><ARG_OF_PERICENTER>70.2917</ARG_OF_PERICENTER><MEAN_ANOMALY>179.9516</MEAN_ANOMALY></meanElements><tleParameters><EPHEMERIS_TYPE>0</EPHEMERIS_TYPE><CLASSIFICATION_TYPE>U</CLASSIFICATION_TYPE><NORAD_CAT_ID>63724</NORAD_CAT_ID><ELEMENT_SET_NO>999</ELEMENT_SET_NO><REV_AT_EPOCH>1443</REV_AT_EPOCH><BSTAR>-.68826E-1</BSTAR><MEAN_MOTION_DOT>-.837286E-2</MEAN_MOTION_DOT><MEAN_MOTION_DDOT>0</MEAN_MOTION_DDOT></tleParameters></data></segment></body></omm>
<omm id="CCSDS_OMM_VERS" version="2.0">
<header><CREATION_DATE/><ORIGINATOR/></header><body><segment><metadata><OBJECT_NAME>KUIPER-00009</OBJECT_NAME><OBJECT_ID>2025-088B</OBJECT_ID><CENTER_NAME>EARTH</CENTER_NAME><REF_FRAME>TEME</REF_FRAME><TIME_SYSTEM>UTC</TIME_SYSTEM><MEAN_ELEMENT_THEORY>SGP4</MEAN_ELEMENT_THEORY></metadata><data><meanElements><EPOCH>2025-07-28T14:00:01.999872</EPOCH><MEAN_MOTION>15.15368699</MEAN_MOTION><ECCENTRICITY>.0012237</ECCENTRICITY><INCLINATION>51.8807</INCLINATION><RA_OF_ASC_NODE>22.5039</RA_OF_ASC_NODE><ARG_OF_PERICENTER>93.3823</ARG_OF_PERICENTER><MEAN_ANOMALY>313.2012</MEAN_ANOMALY></meanElements><tleParameters><EPHEMERIS_TYPE>0</EPHEMERIS_TYPE><CLASSIFICATION_TYPE>U</CLASSIFICATION_TYPE><NORAD_CAT_ID>63725</NORAD_CAT_ID><ELEMENT_SET_NO>999</ELEMENT_SET_NO><REV_AT_EPOCH>1452</REV_AT_EPOCH><BSTAR>-.25058E-2</BSTAR><MEAN_MOTION_DOT>-.4797E-3</MEAN_MOTION_DOT><MEAN_MOTION_DDOT>0</MEAN_MOTION_DDOT></tleParameters></data></segment></body></omm>
<omm id="CCSDS_OMM_VERS" version="2.0">
<header><CREATION_DATE/><ORIGINATOR/></header><body><segment><metadata><OBJECT_NAME>KUIPER-00010</OBJECT_NAME><OBJECT_ID>2025-088C</OBJECT_ID><CENTER_NAME>EARTH</CENTER_NAME><REF_FRAME>TEME</REF_FRAME><TIME_SYSTEM>UTC</TIME_SYSTEM><MEAN_ELEMENT_THEORY>SGP4</MEAN_ELEMENT_THEORY></metadata><data><meanElements><EPOCH>2025-07-27T18:59:34.390464</EPOCH><MEAN_MOTION>15.36032127</MEAN_MOTION><ECCENTRICITY>.0009777</ECCENTRICITY><INCLINATION>51.8645</INCLINATION><RA_OF_ASC_NODE>24.8663</RA_OF_ASC_NODE><ARG_OF_PERICENTER>78.6454</ARG_OF_PERICENTER><MEAN_ANOMALY>281.5630</MEAN_ANOMALY></meanElements><tleParameters><EPHEMERIS_TYPE>0</EPHEMERIS_TYPE><CLASSIFICATION_TYPE>U</CLASSIFICATION_TYPE><NORAD_CAT_ID>63726</NORAD_CAT_ID><ELEMENT_SET_NO>999</ELEMENT_SET_NO><REV_AT_EPOCH>1404</REV_AT_EPOCH><BSTAR>.36387E-3</BSTAR><MEAN_MOTION_DOT>.12615E-3</MEAN_MOTION_DOT><MEAN_MOTION_DDOT>0</MEAN_MOTION_DDOT></tleParameters></data></segment></body></omm>
<omm id="CCSDS_OMM_VERS" version="2.0">
<header><CREATION_DATE/><ORIGINATOR/></header><body><segment><metadata><OBJECT_NAME>KUIPER-00011</OBJECT_NAME><OBJECT_ID>2025-088D</OBJECT_ID><CENTER_NAME>EARTH</CENTER_NAME><REF_FRAME>TEME</REF_FRAME><TIME_SYSTEM>UTC</TIME_SYSTEM><MEAN_ELEMENT_THEORY>SGP4</MEAN_ELEMENT_THEORY></metadata><data><meanElements><EPOCH>2025-07-27T18:04:56.724384</EPOCH><MEAN_MOTION>15.35508463</MEAN_MOTION><ECCENTRICITY>.0011233</ECCENTRICITY><INCLINATION>51.8591</INCLINATION><RA_OF_ASC_NODE>25.2983</RA_OF_ASC_NODE><ARG_OF_PERICENTER>86.4234</ARG_OF_PERICENTER><MEAN_ANOMALY>273.8036</MEAN_ANOMALY></meanElements><tleParameters><EPHEMERIS_TYPE>0</EPHEMERIS_TYPE><CLASSIFICATION_TYPE>U</CLASSIFICATION_TYPE><NORAD_CAT_ID>63727</NORAD_CAT_ID><ELEMENT_SET_NO>999</ELEMENT_SET_NO><REV_AT_EPOCH>1417</REV_AT_EPOCH><BSTAR>.35992E-3</BSTAR><MEAN_MOTION_DOT>.12267E-3</MEAN_MOTION_DOT><MEAN_MOTION_DDOT>0</MEAN_MOTION_DDOT></tleParameters></data></segment></body></omm>
<omm id="CCSDS_OMM_VERS" version="2.0">
<header><CREATION_DATE/><ORIGINATOR/></header><body><segment><metadata><OBJECT_NAME>KUIPER-00012</OBJECT_NAME><OBJECT_ID>2025-088E</OBJECT_ID><CENTER_NAME>EARTH</CENTER_NAME><REF_FRAME>TEME</REF_FRAME><TIME_SYSTEM>UTC</TIME_SYSTEM><MEAN_ELEMENT_THEORY>SGP4</MEAN_ELEMENT_THEORY></metadata><data><meanElements><EPOCH>2025-07-28T04:58:14.868192</EPOCH><MEAN_MOTION>15.35678148</MEAN_MOTION><ECCENTRICITY>.0011456</ECCENTRICITY><INCLINATION>51.8584</INCLINATION><RA_OF_ASC_NODE>23.0767</RA_OF_ASC_NODE><ARG_OF_PERICENTER>88.4363</ARG_OF_PERICENTER><MEAN_ANOMALY>271.7935</MEAN_ANOMALY></meanElements><tleParameters><EPHEMERIS_TYPE>0</EPHEMERIS_TYPE><CLASSIFICATION_TYPE>U</CLASSIFICATION_TYPE><NORAD_CAT_ID>63728</NORAD_CAT_ID><ELEMENT_SET_NO>999</ELEMENT_SET_NO><REV_AT_EPOCH>1419</REV_AT_EPOCH><BSTAR>.35812E-3</BSTAR><MEAN_MOTION_DOT>.12272E-3</MEAN_MOTION_DOT><MEAN_MOTION_DDOT>0</MEAN_MOTION_DDOT></tleParameters></data></segment></body></omm>
<omm id="CCSDS_OMM_VERS" version="2.0">
<header><CREATION_DATE/><ORIGINATOR/></header><body><segment><metadata><OBJECT_NAME>KUIPER-00013</OBJECT_NAME><OBJECT_ID>2025-088F</OBJECT_ID><CENTER_NAME>EARTH</CENTER_NAME><REF_FRAME>TEME</REF_FRAME><TIME_SYSTEM>UTC</TIME_SYSTEM><MEAN_ELEMENT_THEORY>SGP4</MEAN_ELEMENT_THEORY></metadata><data><meanElements><EPOCH>2025-07-28T06:00:02.000160</EPOCH><MEAN_MOTION>15.14520233</MEAN_MOTION><ECCENTRICITY>.0006972</ECCENTRICITY><INCLINATION>51.8797</INCLINATION><RA_OF_ASC_NODE>24.6900</RA_OF_ASC_NODE><ARG_OF_PERICENTER>48.9774</ARG_OF_PERICENTER><MEAN_ANOMALY>30.5338</MEAN_ANOMALY></meanElements><tleParameters><EPHEMERIS_TYPE>0</EPHEMERIS_TYPE><CLASSIFICATION_TYPE>U</CLASSIFICATION_TYPE><NORAD_CAT_ID>63729</NORAD_CAT_ID><ELEMENT_SET_NO>999</ELEMENT_SET_NO><REV_AT_EPOCH>1427</REV_AT_EPOCH><BSTAR>.58731E-4</BSTAR><MEAN_MOTION_DOT>.787E-5</MEAN_MOTION_DOT><MEAN_MOTION_DDOT>0</MEAN_MOTION_DDOT></tleParameters></data></segment></body></omm>
<omm id="CCSDS_OMM_VERS" version="2.0">
<header><CREATION_DATE/><ORIGINATOR/></header><body><segment><metadata><OBJECT_NAME>KUIPER-00014</OBJECT_NAME><OBJECT_ID>2025-088G</OBJECT_ID><CENTER_NAME>EARTH</CENTER_NAME><REF_FRAME>TEME</REF_FRAME><TIME_SYSTEM>UTC</TIME_SYSTEM><MEAN_ELEMENT_THEORY>SGP4</MEAN_ELEMENT_THEORY></metadata><data><meanElements><EPOCH>2025-07-28T14:00:01.999872</EPOCH><MEAN_MOTION>15.13414362</MEAN_MOTION><ECCENTRICITY>.0009821</ECCENTRICITY><INCLINATION>51.8810</INCLINATION><RA_OF_ASC_NODE>24.1069</RA_OF_ASC_NODE><ARG_OF_PERICENTER>85.8153</ARG_OF_PERICENTER><MEAN_ANOMALY>297.7807</MEAN_ANOMALY></meanElements><tleParameters><EPHEMERIS_TYPE>0</EPHEMERIS_TYPE><CLASSIFICATION_TYPE>U</CLASSIFICATION_TYPE><NORAD_CAT_ID>63730</NORAD_CAT_ID><ELEMENT_SET_NO>999</ELEMENT_SET_NO><REV_AT_EPOCH>1412</REV_AT_EPOCH><BSTAR>-.52805E-1</BSTAR><MEAN_MOTION_DOT>-.888045E-2</MEAN_MOTION_DOT><MEAN_MOTION_DDOT>0</MEAN_MOTION_DDOT></tleParameters></data></segment></body></omm>
<omm id="CCSDS_OMM_VERS" version="2.0">
<header><CREATION_DATE/><ORIGINATOR/></header><body><segment><metadata><OBJECT_NAME>KUIPER-00015</OBJECT_NAME><OBJECT_ID>2025-088H</OBJECT_ID><CENTER_NAME>EARTH</CENTER_NAME><REF_FRAME>TEME</REF_FRAME><TIME_SYSTEM>UTC</TIME_SYSTEM><MEAN_ELEMENT_THEORY>SGP4</MEAN_ELEMENT_THEORY></metadata><data><meanElements><EPOCH>2025-07-28T12:00:02.000160</EPOCH><MEAN_MOTION>14.88173129</MEAN_MOTION><ECCENTRICITY>.0012404</ECCENTRICITY><INCLINATION>51.8930</INCLINATION><RA_OF_ASC_NODE>32.9932</RA_OF_ASC_NODE><ARG_OF_PERICENTER>64.4477</ARG_OF_PERICENTER><MEAN_ANOMALY>282.8085</MEAN_ANOMALY></meanElements><tleParameters><EPHEMERIS_TYPE>0</EPHEMERIS_TYPE><CLASSIFICATION_TYPE>U</CLASSIFICATION_TYPE><NORAD_CAT_ID>63731</NORAD_CAT_ID><ELEMENT_SET_NO>999</ELEMENT_SET_NO><REV_AT_EPOCH>1444</REV_AT_EPOCH><BSTAR>.17711E-3</BSTAR><MEAN_MOTION_DOT>.141E-4</MEAN_MOTION_DOT><MEAN_MOTION_DDOT>0</MEAN_MOTION_DDOT></tleParameters></data></segment></body></omm>

</ndm>
